COMMENT,ORIGINATOR,NORAD_CAT_ID,OBJECT_NAME,OBJECT_TYPE,CLASSIFICATION_TYPE,INTLDES,EPOCH,EPOCH_MICROSECONDS,MEAN_MOTION,ECCENTRICITY,INCLINATION,RA_OF_ASC_NODE,ARG_OF_PERICENTER,MEAN_ANOMALY,EPHEMERIS_TYPE,ELEMENT_SET_NO,REV_AT_EPOCH,BSTAR,MEAN_MOTION_DOT,MEAN_MOTION_DDOT,FILE,TLE_LINE0,TLE_LINE1,TLE_LINE2,OBJECT_ID,OBJECT_NUMBER,SEMIMAJOR_AXIS,PERIOD,APOGEE,PERIGEE,DECAYED
"GENERATED VIA SPACETRACK.ORG API","18 SPCS","12345","COSMOS 1174 DEB","DEBRIS","U","80030T","1982-05-02 16:58:57","734688","13.88045439","0.0701088","66.066","220.5668","209.4535","146.4779","0","999","55160","0.003168","0.00030392","0","34343","0 COSMOS 1174 DEB","1 12345U 80030  T 82122.70761267  .00030392 +00000-0 +31680-2 0  9994","2 12345 066.0660 220.5668 0701088 209.4535 146.4779 13.88045439551602","1980-030T","12345","7313.630","103.743","1448.245","422.745","1"
"GENERATED VIA SPACETRACK.ORG API","18 SPCS","12345","COSMOS 1174 DEB","DEBRIS","U","80030T","1982-05-01 16:46:20","570016","13.87986969","0.070186","66.0639","223.1144","209.9871","145.8705","0","999","55146","0.003273","0.00031504","0","34343","0 COSMOS 1174 DEB","1 12345U 80030  T 82121.69884919  .00031504 +00000-0 +32730-2 0  9994","2 12345 066.0639 223.1144 0701860 209.9871 145.8705 13.87986969551469","1980-030T","12345","7313.836","103.747","1449.029","422.372","1"
"GENERATED VIA SPACETRACK.ORG API","18 SPCS","12345","COSMOS 1174 DEB","DEBRIS","U","80030T","1982-04-30 06:11:05","210015","13.87893973","0.0702663","66.0626","226.7558","210.7538","145.0715","0","999","55126","0.00327","0.00031545","0","34343","0 COSMOS 1174 DEB","1 12345U 80030  T 82120.25769919  .00031545 +00000-0 +32700-2 0  9999","2 12345 066.0626 226.7558 0702663 210.7538 145.0715 13.87893973551268","1980-030T","12345","7314.162","103.754","1449.966","422.088","1"
"GENERATED VIA SPACETRACK.ORG API","18 SPCS","12345","COSMOS 1174 DEB","DEBRIS","U","80030T","1982-04-29 07:42:05","104223","13.87830117","0.0702968","66.0631","229.1241","211.2754","144.493","0","999","55113","0.0031359","0.00030243","0","34343","0 COSMOS 1174 DEB","1 12345U 80030  T 82119.32089241  .00030243 +00000-0 +31359-2 0  9991","2 12345 066.0631 229.1241 0702968 211.2754 144.4930 13.87830117551133","1980-030T","12345","7314.387","103.759","1450.430","422.074","1"
"GENERATED VIA SPACETRACK.ORG API","18 SPCS","12345","COSMOS 1174 DEB","DEBRIS","U","80030T","1982-04-28 17:51:52","876799","13.87789636","0.0702489","66.0634","230.5795","211.5926","144.0679","0","999","55105","0.003004","0.00028833","0","34343","0 COSMOS 1174 DEB","1 12345U 80030  T 82118.74436200  .00028833 +00000-0 +30040-2 0  9995","2 12345 066.0634 230.5795 0702489 211.5926 144.0679 13.87789636551054","1980-030T","12345","7314.529","103.762","1450.231","422.556","1"
"GENERATED VIA SPACETRACK.ORG API","18 SPCS","12345","COSMOS 1174 DEB","DEBRIS","U","80030T","1982-04-28 09:13:00","309503","13.87768686","0.0702543","66.0638","231.4905","211.7944","143.8519","0","999","55100","0.0030009","0.00028795","0","34343","0 COSMOS 1174 DEB","1 12345U 80030  T 82118.38403136  .00028795 +00000-0 +30009-2 0  9999","2 12345 066.0638 231.4905 0702543 211.7944 143.8519 13.87768686551001","1980-030T","12345","7314.602","103.764","1450.350","422.585","1"
"GENERATED VIA SPACETRACK.ORG API","18 SPCS","12345","COSMOS 1174 DEB","DEBRIS","U","80030T","1982-04-27 09:00:06","468768","13.87719485","0.0703336","66.0624","234.0376","212.335","143.2693","0","999","55086","0.0033015","0.00031804","0","34343","0 COSMOS 1174 DEB","1 12345U 80030  T 82117.37507487  .00031804 +00000-0 +33015-2 0  9996","2 12345 066.0624 234.0376 0703336 212.3350 143.2693 13.87719485550869","1980-030T","12345","7314.775","103.767","1451.115","422.166","1"
"GENERATED VIA SPACETRACK.ORG API","18 SPCS","12345","COSMOS 1174 DEB","DEBRIS","U","80030T","1982-04-26 17:26:03","440543","13.87677712","0.0704097","66.0633","235.6763","212.6826","142.8358","0","999","55077","0.0032616","0.00031538","0","34343","0 COSMOS 1174 DEB","1 12345U 80030  T 82116.72642871  .00031538 +00000-0 +32616-2 0  9991","2 12345 066.0633 235.6763 0704097 212.6826 142.8358 13.87677712550771","1980-030T","12345","7314.922","103.770","1451.829","421.746","1"
"GENERATED VIA SPACETRACK.ORG API","18 SPCS","12345","COSMOS 1174 DEB","DEBRIS","U","80030T","1982-04-26 08:47:09","266208","13.87649411","0.0703833","66.0627","236.5868","212.9003","142.6422","0","999","55072","0.0031526","0.00030396","0","34343","0 COSMOS 1174 DEB","1 12345U 80030  T 82116.36607947  .00030396 +00000-0 +31526-2 0  9996","2 12345 066.0627 236.5868 0703833 212.9003 142.6422 13.87649411550727","1980-030T","12345","7315.022","103.773","1451.742","422.031","1"
"GENERATED VIA SPACETRACK.ORG API","18 SPCS","12345","COSMOS 1174 DEB","DEBRIS","U","80030T","1982-04-25 08:34:07","333247","13.87576933","0.0704225","66.0636","239.1368","213.4541","142.0098","0","999","55058","0.0028332","0.00027312","0","34343","0 COSMOS 1174 DEB","1 12345U 80030  T 82115.35702932  .00027312 +00000-0 +28332-2 0  9999","2 12345 066.0636 239.1368 0704225 213.4541 142.0098 13.87576933550585","1980-030T","12345","7315.276","103.778","1452.301","421.981","1"
"GENERATED VIA SPACETRACK.ORG API","18 SPCS","12345","COSMOS 1174 DEB","DEBRIS","U","80030T","1982-04-24 18:43:46","331903","13.87546662","0.0704222","66.0635","240.5925","213.7768","141.6039","0","999","55050","0.0028735","0.0002767","0","34343","0 COSMOS 1174 DEB","1 12345U 80030  T 82114.78039736  .00027670 +00000-0 +28735-2 0  9994","2 12345 066.0635 240.5925 0704222 213.7768 141.6039 13.87546662550508","1980-030T","12345","7315.383","103.780","1452.413","422.082","1"
"GENERATED VIA SPACETRACK.ORG API","18 SPCS","12345","COSMOS 1174 DEB","DEBRIS","U","80030T","1982-04-23 09:51:39","465216","13.87475492","0.0704598","66.0627","244.0508","214.5487","140.7754","0","999","55031","0.0030313","0.000292","0","34343","0 COSMOS 1174 DEB","1 12345U 80030  T 82113.41087344  .00029200 +00000-0 +30313-2 0  9997","2 12345 066.0627 244.0508 0704598 214.5487 140.7754 13.87475492550313","1980-030T","12345","7315.633","103.786","1452.956","422.040","1"
"GENERATED VIA SPACETRACK.ORG API","18 SPCS","12345","COSMOS 1174 DEB","DEBRIS","U","80030T","1982-04-22 09:38:26","927520","13.87415935","0.0705541","66.0639","246.6004","215.0626","140.21","0","999","55017","0.0029905","0.00028931","0","34343","0 COSMOS 1174 DEB","1 12345U 80030  T 82112.40170055  .00028931 +00000-0 +29905-2 0  9992","2 12345 066.0639 246.6004 0705541 215.0626 140.2100 13.87415935550175","1980-030T","12345","7315.842","103.790","1453.870","421.545","1"
"GENERATED VIA SPACETRACK.ORG API","18 SPCS","12345","COSMOS 1174 DEB","DEBRIS","U","80030T","1982-04-20 12:39:27","704735","13.87304859","0.0705324","66.0655","251.3361","216.1235","139.0187","0","999","54991","0.0028662","0.00027579","0","34343","0 COSMOS 1174 DEB","1 12345U 80030  T 82110.52740399  .00027579 +00000-0 +28662-2 0  9993","2 12345 066.0655 251.3361 0705324 216.1235 139.0187 13.87304859549912","1980-030T","12345","7316.233","103.798","1454.129","422.066","1"
"GENERATED VIA SPACETRACK.ORG API","18 SPCS","12345","COSMOS 1174 DEB","DEBRIS","U","80030T","1982-04-19 10:42:15","434208","13.87251397","0.0705568","66.0626","254.0648","216.7021","138.3664","0","999","54976","0.0031162","0.00029987","0","34343","0 COSMOS 1174 DEB","1 12345U 80030  T 82109.44601197  .00029987 +00000-0 +31162-2 0  9998","2 12345 066.0626 254.0648 0705568 216.7021 138.3664 13.87251397549760","1980-030T","12345","7316.421","103.802","1454.509","422.062","1"
"GENERATED VIA SPACETRACK.ORG API","18 SPCS","12345","COSMOS 1174 DEB","DEBRIS","U","80030T","1982-04-18 10:28:49","176192","13.87185657","0.0706599","66.0649","256.6161","217.2299","137.8047","0","999","54962","0.0029625","0.0002864","0","34343","0 COSMOS 1174 DEB","1 12345U 80030  T 82108.43668028  .00028640 +00000-0 +29625-2 0  9998","2 12345 066.0649 256.6161 0706599 217.2299 137.8047 13.87185657549620","1980-030T","12345","7316.652","103.807","1455.511","421.523","1"
"GENERATED VIA SPACETRACK.ORG API","18 SPCS","12345","COSMOS 1174 DEB","DEBRIS","U","80030T","1982-04-17 18:54:24","446879","13.87142458","0.0706258","66.0668","258.2551","217.5875","137.3341","0","999","54953","0.0028369","0.00027318","0","34343","0 COSMOS 1174 DEB","1 12345U 80030  T 82107.78778295  .00027318 +00000-0 +28369-2 0  9998","2 12345 066.0668 258.2551 0706258 217.5875 137.3341 13.87142458549531","1980-030T","12345","7316.804","103.811","1455.424","421.914","1"
"GENERATED VIA SPACETRACK.ORG API","18 SPCS","12345","COSMOS 1174 DEB","DEBRIS","U","80030T","1982-04-13 12:48:19","815552","13.86907005","0.0708728","66.0666","268.9906","219.8592","134.8445","0","999","54894","0.0029392","0.00028555","0","34343","0 COSMOS 1174 DEB","1 12345U 80030  T 82103.53356268  .00028555 +00000-0 +29392-2 0  9990","2 12345 066.0666 268.9906 0708728 219.8592 134.8445 13.86907005548943","1980-030T","12345","7317.632","103.828","1458.118","420.876","1"
"GENERATED VIA SPACETRACK.ORG API","18 SPCS","12345","COSMOS 1174 DEB","DEBRIS","U","80030T","1982-04-12 12:34:31","988639","13.86838595","0.0708817","66.0657","271.5368","220.427","134.2283","0","999","54880","0.0027818","0.00026974","0","34343","0 COSMOS 1174 DEB","1 12345U 80030  T 82102.52398135  .00026974 +00000-0 +27818-2 0  9991","2 12345 066.0657 271.5368 0708817 220.4270 134.2283 13.86838595548801","1980-030T","12345","7317.873","103.833","1458.441","421.034","1"
"GENERATED VIA SPACETRACK.ORG API","18 SPCS","12345","COSMOS 1174 DEB","DEBRIS","U","80030T","1982-04-11 12:20:40","637471","13.86770629","0.0708556","66.0652","274.0855","221.0017","133.6229","0","999","54866","0.0025578","0.00024691","0","34343","0 COSMOS 1174 DEB","1 12345U 80030  T 82101.51435923  .00024691 +00000-0 +25578-2 0  9991","2 12345 066.0652 274.0855 0708556 221.0017 133.6229 13.86770629548661","1980-030T","12345","7318.112","103.838","1458.506","421.447","1"
